ONEWEB-0474             
1 51654U 22012AJ  23256.70830298  .00000660  00000+0  18541-2 0  9995
2 51654  87.8903 236.2880 0002316  89.7481 270.3912 13.10372394 78648
ONEWEB-0475             
1 51655U 22012AK  23256.39640345  .00000083  00000+0  18032-3 0  9998
2 51655  87.9223 206.1216 0002166  87.1740 272.9639 13.17650863 80977
ONEWEB-0490             
1 54113U 22138A   23256.22614224  .00000149  00000+0  33949-3 0  9995
2 54113  87.9266 145.5756 0001935  77.4794 282.6555 13.19727780 43884
ONEWEB-0492             
1 54114U 22138B   23256.25140906  .00000065  00000+0  13068-3 0  9997
2 54114  87.9263 145.5667 0002166  79.0932 281.0444 13.19722758 43893
ONEWEB-0495             
1 54115U 22138C   23256.45675653  .00000049  00000+0  89807-4 0  9999
2 54115  87.9261 145.5376 0002195  88.3632 271.7752 13.19727422 43904
ONEWEB-0497             
1 54116U 22138D   23256.69684031  .00000039  00000+0  65354-4 0  9996
2 54116  87.9262 145.4821 0001947  77.8119 282.3231 13.19729056 44790
ONEWEB-0499             
1 54117U 22138E   23256.22456598  .00000020  00000+0  18540-4 0  9996
2 54117  87.9262 145.5743 0001481  95.0724 265.0578 13.19726153 43877
ONEWEB-0500             
1 54118U 22138F   23256.75843809  .00000017  00000+0  10931-4 0  9992
2 54118  87.9266 145.4633 0001919  75.4916 284.6430 13.19725312 44826
